{
  "type": "FeatureCollection",
  "features": [
    {
      "type": "Feature",
      "properties": {
        "norad_id": 43823,
        "name": "GEO-KOMPSAT-2A",
        "group": "weather",
        "lat": -0.02324037434951234,
        "lon": -2.916441151899461,
        "alt_km": 35787.22920946168,
        "timestamp": "2025-12-10T09:57:44.347960+00:00",
        "meta_object_name": "GEO-KOMPSAT-2A",
        "meta_object_id": "2018-100A",
        "meta_epoch": "2025-12-09T23:29:38.510016",
        "meta_mean_motion": 1.00269688,
        "meta_eccentricity": 1.17e-05,
        "meta_inclination": 0.0417,
        "meta_ra_of_asc_node": 144.825,
        "meta_arg_of_pericenter": 34.8694,
        "meta_mean_anomaly": 19.9414,
        "meta_ephemeris_type": 0,
        "meta_classification_type": "U",
        "meta_norad_cat_id": 43823,
        "meta_element_set_no": 999,
        "meta_rev_at_epoch": 2573,
        "meta_bstar": 0,
        "meta_mean_motion_dot": -3.41e-06,
        "meta_mean_motion_ddot": 0,
        "tle_line1": "1 43823U 18100A   25343.97891794 -.00000341  00000+0  00000+0 0  9998",
        "tle_line2": "2 43823   0.0417 144.8250 0000117  34.8694  19.9414  1.00269688 25736"
      },
      "geometry": {
        "type": "Point",
        "coordinates": [
          -2.916441151899461,
          -0.02324037434951234
        ]
      }
    },
    {
      "type": "Feature",
      "properties": {
        "norad_id": 44387,
        "name": "METEOR-M2 2",
        "group": "weather",
        "lat": -17.674968180241926,
        "lon": -33.02365776099346,
        "alt_km": 816.587700560639,
        "timestamp": "2025-12-10T09:57:44.347978+00:00",
        "meta_object_name": "METEOR-M2 2",
        "meta_object_id": "2019-038A",
        "meta_epoch": "2025-12-10T04:59:17.427840",
        "meta_mean_motion": 14.24290685,
        "meta_eccentricity": 0.0001142,
        "meta_inclination": 98.8971,
        "meta_ra_of_asc_node": 323.9054,
        "meta_arg_of_pericenter": 151.762,
        "meta_mean_anomaly": 208.362,
        "meta_ephemeris_type": 0,
        "meta_classification_type": "U",
        "meta_norad_cat_id": 44387,
        "meta_element_set_no": 999,
        "meta_rev_at_epoch": 33439,
        "meta_bstar": 0.0002682,
        "meta_mean_motion_dot": 5.73e-06,
        "meta_mean_motion_ddot": 0,
        "tle_line1": "1 44387U 19038A   25344.20784060  .00000573  00000+0  26820-3 0  9997",
        "tle_line2": "2 44387  98.8971 323.9054 0001142 151.7620 208.3620 14.24290685334390"
      },
      "geometry": {
        "type": "Point",
        "coordinates": [
          -33.02365776099346,
          -17.674968180241926
        ]
      }
    },
    {
      "type": "Feature",
      "properties": {
        "norad_id": 47719,
        "name": "ARKTIKA-M 1",
        "group": "weather",
        "lat": 57.93588542598343,
        "lon": -149.4357234136745,
        "alt_km": 33584.98702413039,
        "timestamp": "2025-12-10T09:57:44.347992+00:00",
        "meta_object_name": "ARKTIKA-M 1",
        "meta_object_id": "2021-016A",
        "meta_epoch": "2025-12-09T14:03:23.859648",
        "meta_mean_motion": 2.00631311,
        "meta_eccentricity": 0.7202538,
        "meta_inclination": 63.1769,
        "meta_ra_of_asc_node": 84.4506,
        "meta_arg_of_pericenter": 269.1116,
        "meta_mean_anomaly": 15.6235,
        "meta_ephemeris_type": 0,
        "meta_classification_type": "U",
        "meta_norad_cat_id": 47719,
        "meta_element_set_no": 999,
        "meta_rev_at_epoch": 3498,
        "meta_bstar": 0,
        "meta_mean_motion_dot": -6.1e-07,
        "meta_mean_motion_ddot": 0,
        "tle_line1": "1 47719U 21016A   25343.58569282 -.00000061  00000+0  00000+0 0  9996",
        "tle_line2": "2 47719  63.1769  84.4506 7202538 269.1116  15.6235  2.00631311 34985"
      },
      "geometry": {
        "type": "Point",
        "coordinates": [
          -149.4357234136745,
          57.93588542598343
        ]
      }
    },
    {
      "type": "Feature",
      "properties": {
        "norad_id": 49008,
        "name": "FENGYUN 3E",
        "group": "weather",
        "lat": -21.439567796033625,
        "lon": -11.57019269177723,
        "alt_km": 830.7379386269058,
        "timestamp": "2025-12-10T09:57:44.348011+00:00",
        "meta_object_name": "FENGYUN 3E",
        "meta_object_id": "2021-062A",
        "meta_epoch": "2025-12-10T03:17:57.686208",
        "meta_mean_motion": 14.19879674,
        "meta_eccentricity": 5.92e-05,
        "meta_inclination": 98.7474,
        "meta_ra_of_asc_node": 344.6892,
        "meta_arg_of_pericenter": 287.044,
        "meta_mean_anomaly": 73.0671,
        "meta_ephemeris_type": 0,
        "meta_classification_type": "U",
        "meta_norad_cat_id": 49008,
        "meta_element_set_no": 999,
        "meta_rev_at_epoch": 22975,
        "meta_bstar": 0.00013971,
        "meta_mean_motion_dot": 2.52e-06,
        "meta_mean_motion_ddot": 0,
        "tle_line1": "1 49008U 21062A   25344.13747322  .00000252  00000+0  13971-3 0  9991",
        "tle_line2": "2 49008  98.7474 344.6892 0000592 287.0440  73.0671 14.19879674229754"
      },
      "geometry": {
        "type": "Point",
        "coordinates": [
          -11.57019269177723,
          -21.439567796033625
        ]
      }
    },
    {
      "type": "Feature",
      "properties": {
        "norad_id": 51850,
        "name": "GOES 18",
        "group": "weather",
        "lat": 0.0060102582518740556,
        "lon": 91.82342336175132,
        "alt_km": 35788.94633989074,
        "timestamp": "2025-12-10T09:57:44.348024+00:00",
        "meta_object_name": "GOES 18",
        "meta_object_id": "2022-021A",
        "meta_epoch": "2025-12-10T05:14:29.455008",
        "meta_mean_motion": 1.00270999,
        "meta_eccentricity": 6.94e-05,
        "meta_inclination": 0.0313,
        "meta_ra_of_asc_node": 189.68,
        "meta_arg_of_pericenter": 107.0329,
        "meta_mean_anomaly": 84.105,
        "meta_ephemeris_type": 0,
        "meta_classification_type": "U",
        "meta_norad_cat_id": 51850,
        "meta_element_set_no": 999,
        "meta_rev_at_epoch": 469,
        "meta_bstar": 0,
        "meta_mean_motion_dot": 1e-06,
        "meta_mean_motion_ddot": 0,
        "tle_line1": "1 51850U 22021A   25344.21839647  .00000100  00000+0  00000+0 0  9993",
        "tle_line2": "2 51850   0.0313 189.6800 0000694 107.0329  84.1050  1.00270999  4695"
      },
      "geometry": {
        "type": "Point",
        "coordinates": [
          91.82342336175132,
          0.0060102582518740556
        ]
      }
    },
    {
      "type": "Feature",
      "properties": {
        "norad_id": 54234,
        "name": "NOAA 21 (JPSS-2)",
        "group": "weather",
        "lat": -12.209806421220819,
        "lon": -77.338870016618,
        "alt_km": 830.3461379728978,
        "timestamp": "2025-12-10T09:57:44.348038+00:00",
        "meta_object_name": "NOAA 21 (JPSS-2)",
        "meta_object_id": "2022-150A",
        "meta_epoch": "2025-12-09T22:10:43.470336",
        "meta_mean_motion": 14.19522973,
        "meta_eccentricity": 0.0002324,
        "meta_inclination": 98.7458,
        "meta_ra_of_asc_node": 280.2675,
        "meta_arg_of_pericenter": 43.4458,
        "meta_mean_anomaly": 316.69,
        "meta_ephemeris_type": 0,
        "meta_classification_type": "U",
        "meta_norad_cat_id": 54234,
        "meta_element_set_no": 999,
        "meta_rev_at_epoch": 15969,
        "meta_bstar": 0.00010627,
        "meta_mean_motion_dot": 1.8e-06,
        "meta_mean_motion_ddot": 0,
        "tle_line1": "1 54234U 22150A   25343.92411424  .00000180  00000+0  10627-3 0  9999",
        "tle_line2": "2 54234  98.7458 280.2675 0002324  43.4458 316.6900 14.19522973159698"
      },
      "geometry": {
        "type": "Point",
        "coordinates": [
          -77.338870016618,
          -12.209806421220819
        ]
      }
    },
    {
      "type": "Feature",
      "properties": {
        "norad_id": 54743,
        "name": "METEOSAT-12 (MTG-I1)",
        "group": "weather",
        "lat": -0.23507974967669393,
        "lon": -131.3907676953993,
        "alt_km": 35779.78586986609,
        "timestamp": "2025-12-10T09:57:44.348051+00:00",
        "meta_object_name": "METEOSAT-12 (MTG-I1)",
        "meta_object_id": "2022-170C",
        "meta_epoch": "2025-12-09T23:46:38.709120",
        "meta_mean_motion": 1.00275392,
        "meta_eccentricity": 0.0001408,
        "meta_inclination": 0.7277,
        "meta_ra_of_asc_node": 31.2079,
        "meta_arg_of_pericenter": 224.6279,
        "meta_mean_anomaly": 179.5873,
        "meta_ephemeris_type": 0,
        "meta_classification_type": "U",
        "meta_norad_cat_id": 54743,
        "meta_element_set_no": 999,
        "meta_rev_at_epoch": 1108,
        "meta_bstar": 0,
        "meta_mean_motion_dot": -3e-08,
        "meta_mean_motion_ddot": 0,
        "tle_line1": "1 54743U 22170C   25343.99072580 -.00000003  00000+0  00000+0 0  9994",
        "tle_line2": "2 54743   0.7277  31.2079 0001408 224.6279 179.5873  1.00275392 11084"
      },
      "geometry": {
        "type": "Point",
        "coordinates": [
          -131.3907676953993,
          -0.23507974967669393
        ]
      }
    }
  ]
}